HIROGARI (OPUSAT-II)    
1 47930U 98067SG  21103.03228789  .00012896  00000-0  23135-3 0  9992
2 47930  51.6430 304.7653 0002907 143.8137 216.3049 15.50272409  4629
GUARANISAT-1            
1 47931U 98067SH  21103.80546094  .00009086  00000-0  16544-3 0  9993
2 47931  51.6426 300.9290 0002861 146.6929 213.4241 15.50268218  4747
SMOG-1                  
1 47964U 21022AJ  21104.43976306  .00000314  00000-0  25120-4 0  9995
2 47964  97.5630   7.9048 0019989 158.7763 288.4516 15.06893579  2237
MMSATS-1                
1 47976U 98067SJ  21104.53141993  .00002856  00000-0  59327-4 0  9997
2 47976  51.6459 297.5156 0002825 195.3128 164.7789 15.49320387  3632
